ONEWEB-0553             
1 56055U 23043K   24076.43885399 -.00000025  00000+0 -98354-4 0  9992
2 56055  87.9111  32.5194 0001958  95.9348 264.2006 13.16594255 50719
ONEWEB-0554             
1 56056U 23043L   24076.42618996  .00000013  00000+0  59053-6 0  9999
2 56056  87.9116  32.5404 0002499  73.3051 286.8354 13.16594352 50692
ONEWEB-0557             
1 56058U 23043N   24076.40243781  .00000160  00000+0  38618-3 0  9999
2 56058  87.9111  32.5452 0002899  94.2197 265.9266 13.16593814 50691
ONEWEB-0559             
1 56060U 23043Q   24076.46021165  .00000096  00000+0  20054-3 0  9991
2 56060  87.9251  47.7257 0002047  64.8886 295.2460 13.21825826 49566
ONEWEB-0566             
1 56061U 23043R   24076.45391240  .00000033  00000+0  48240-4 0  9994
2 56061  87.9249  47.7284 0001405  68.2885 291.8398 13.21823687 49541
ONEWEB-0568             
1 56062U 23043S   24076.41985354  .00000042  00000+0  76863-4 0  9998
2 56062  87.9113  32.5061 0002101  94.1416 265.9955 13.16594069 50714
